#cP2012 11  1  0  0  0.00000000     288 u+U   IGb08 FIT  TUM
## 1712 345600.00000000   300.00000000 56232 0.0000000000000
+    3   J01E11E12  0  0  0  0  0  0  0  0  0  0  0  0  0  0
+          0  0  0  0  0  0  0  0  0  0  0  0  0  0  0  0  0
+          0  0  0  0  0  0  0  0  0  0  0  0  0  0  0  0  0
+          0  0  0  0  0  0  0  0  0  0  0  0  0  0  0  0  0
+          0  0  0  0  0  0  0  0  0  0  0  0  0  0  0  0  0
++         4  1  1  0  0  0  0  0  0  0  0  0  0  0  0  0  0
++         0  0  0  0  0  0  0  0  0  0  0  0  0  0  0  0  0
++         0  0  0  0  0  0  0  0  0  0  0  0  0  0  0  0  0
++         0  0  0  0  0  0  0  0  0  0  0  0  0  0  0  0  0
++         0  0  0  0  0  0  0  0  0  0  0  0  0  0  0  0  0
%c E  cc GPS ccc cccc cccc cccc cccc ccccc ccccc ccccc ccccc
%c cc cc ccc ccc cccc cccc cccc cccc ccccc ccccc ccccc ccccc
%f  1.2500000  1.025000000  0.00000000000  0.000000000000000
%f  0.0000000  0.000000000  0.00000000000  0.000000000000000
%i    0    0    0    0      0      0      0      0         0
%i    0    0    0    0      0      0      0      0         0
/* Galileo+QZSS orbits for MGEX based on CONGO+MGEX data    
/* Technische Universitaet Muenchen (TUM)                   
/* Further information: www.iapg.bv.tum.de/mgex             
/* PCV:IGS08_1645 OL/AL:FES2004  NONE     YN ORB:CoN CLK:CoN
*  2012 11  1 10  0  0.00000000
PJ01 -27892.483845  27581.476945  20572.277531    -18.088437
PE11   5305.655712 -28598.200274  -5492.119567   1240.444560
PE12  15627.135566 -22579.109509  11053.974456    410.384084
*  2012 11  1 10  5  0.00000000
PJ01 -27931.882710  27777.924095  20145.010699    -18.090360
PE11   5339.841166 -28746.654308  -4612.697985   1240.469368
PE12  15512.771529 -22253.968036  11845.934703    410.409605
*  2012 11  1 10 10  0.00000000
PJ01 -27964.410297  27977.733776  19709.399907    -18.092185
PE11   5363.239855 -28870.356682  -3726.895022   1240.494170
PE12  15399.151123 -21903.705806  12621.509438    410.435137
*  2012 11  1 10 15  0.00000000
PJ01 -27989.889604  28180.575071  19265.597969    -18.094050
PE11   5376.925862 -28968.746160  -2835.936012   1240.518951
PE12  15287.468275 -21528.698457  13379.625927    410.460685
*  2012 11  1 10 20  0.00000000
PJ01 -28008.156858  28386.108302  18813.761704    -18.095996
PE11   5382.005083 -29041.332122  -1941.053475   1240.543744
PE12  15178.897102 -21129.395825  14119.235590    410.486213
*  2012 11  1 10 25  0.00000000
PJ01 -28019.061900  28593.985575  18354.051943    -18.097883
PE11   5379.611091 -29087.696324  -1043.485398   1240.568539
PE12  15074.587631 -20706.320573  14839.315465    410.511753
*  2012 11  1 10 30  0.00000000
PJ01 -28022.468560  28803.851329  17886.633554    -18.099736
PE11   5370.900911 -29107.494389   -144.473540   1240.593329
PE12  14975.661601 -20260.066582  15538.869605    410.537268
*  2012 11  1 10 35  0.00000000
PJ01 -28018.255015  29015.342908  17411.675448    -18.101699
PE11   5357.050722 -29100.457061    754.738306   1240.618143
PE12  14883.208382 -19791.297070  16216.930467    410.562779
*  2012 11  1 10 40  0.00000000
PJ01 -28006.314104  29228.091154  16929.350594    -18.103573
PE11   5339.251473 -29066.391189   1652.906030   1240.642955
PE12  14798.280989 -19300.742496  16872.560247    410.588303
*  2012 11  1 10 45  0.00000000
PJ01 -27986.553646  29441.721008  16439.836031    -18.105456
PE11   5318.704466 -29005.180459   2548.786922   1240.667769
PE12  14721.892247 -18789.198226  17504.852169    410.613818
*  2012 11  1 10 50  0.00000000
PJ01 -27958.896716  29655.852135  15943.312873    -18.107400
PE11   5296.616899 -28916.785851   3441.141408   1240.692572
PE12  14655.011084 -18257.521961  18112.931750    410.639346
*  2012 11  1 10 55  0.00000000
PJ01 -27923.281907  29870.099552  15439.966325    -18.109198
PE11   5274.197377 -28801.245842   4328.734755   1240.717366
PE12  14598.558988 -17706.630975  18695.957995    410.664877
*  2012 11  1 11  0  0.00000000
PJ01 -27879.663565  30084.074284  14929.985678    -18.111077
PE11   5252.651442 -28658.676331   5210.338795   1240.742169
PE12  14553.406635 -17137.499121  19253.124569    410.690401
*  2012 11  1 11  5  0.00000000
PJ01 -27828.011990  30297.384018  14413.564327    -18.113004
PE11   5233.177089 -28489.270310   6084.733612   1240.766970
PE12  14520.370688 -16551.153670  19783.660903    410.715927
*  2012 11  1 11 10  0.00000000
PJ01 -27768.313629  30509.633784  13890.899754    -18.114873
PE11   5216.960329 -28293.297256   6950.709254   1240.791778
PE12  14500.210800 -15948.671934  20286.833267    410.741454
*  2012 11  1 11 15  0.00000000
PJ01 -27700.571219  30720.426630  13362.193550    -18.116679
PE11   5205.170784 -28071.102273   7807.067388   1240.816583
PE12  14493.626807 -15331.177758  20761.945773    410.766994
*  2012 11  1 11 20  0.00000000
PJ01 -27624.803926  30929.364324  12827.651397    -18.118646
PE11   5198.957342 -27823.104963   8652.622979   1240.841384
PE12  14501.256146 -14699.837806  21208.341342    410.792510
*  2012 11  1 11 25  0.00000000
PJ01 -27541.047435  31136.048049  12287.483067    -18.120536
PE11   5199.443891 -27549.798048   9486.205924   1240.866184
PE12  14523.671483 -14055.857736  21625.402611    410.818040
*  2012 11  1 11 30  0.00000000
PJ01 -27449.354030  31340.079119  11741.902421    -18.122400
PE11   5207.725134 -27251.745741  10306.662674   1240.891002
PE12  14561.378577 -13400.478229  22012.552781    410.843580
*  2012 11  1 11 35  0.00000000
PJ01 -27349.792632  31541.059694  11191.127387    -18.124348
PE11   5224.862513 -26929.581861  11112.857840   1240.915813
PE12  14614.814379 -12734.970888  22369.256419    410.869093
*  2012 11  1 11 40  0.00000000
PJ01 -27242.448808  31738.593506  10635.379962    -18.126228
PE11   5251.880244 -26584.007726  11903.675757   1240.940621
PE12  14684.345372 -12060.634055  22695.020189    410.894626
*  2012 11  1 11 45  0.00000000
PJ01 -27127.424765  31932.286581  10074.886179    -18.128077
PE11   5289.761492 -26215.789794  12678.022040   1240.965405
PE12  14770.266170 -11378.788507  22989.393543    410.920172
*  2012 11  1 11 50  0.00000000
PJ01 -27004.839294  32121.747975   9509.876103    -18.130034
PE11   5339.444685 -25825.757103  13434.825093   1240.990188
PE12  14872.798355 -10690.773105  23251.969332    410.945696
*  2012 11  1 11 55  0.00000000
PJ01 -26874.827693  32306.590507   8940.583797    -18.131917
PE11   5401.819985 -25414.798471  14173.037601   1241.014995
PE12  14992.089591  -9997.940358  23482.384378    410.971228
*  2012 11  1 12  0  0.00000000
PJ01 -26737.541665  32486.431491   8367.247299    -18.133785
PE11   5477.725935 -24983.859514  14891.637977   1241.039776
PE12  15128.212983  -9301.651960  23680.319967    410.996752
*  2012 11  1 12  5  0.00000000
PJ01 -26593.149173  32660.893470   7790.108602    -18.135707
PE11   5567.946278 -24533.939463  15589.631771   1241.064573
PE12  15281.166708  -8603.274291  23845.502295    411.022282
*  2012 11  1 12 10  0.00000000
PJ01 -26441.834265  32829.604958   7209.413594    -18.137615
PE11   5673.206980 -24066.087777  16266.053070   1241.089371
PE12  15450.873917  -7904.173881  23977.702841    411.047797
*  2012 11  1 12 15  0.00000000
PJ01 -26283.796884  32992.201156   6625.412047    -18.139486
PE11   5794.173453 -23581.400622  16919.965808   1241.114170
PE12  15637.182886  -7205.712926  24076.738688    411.073333
*  2012 11  1 12 20  0.00000000
PJ01 -26119.252625  33148.324689   6038.357556    -18.141438
PE11   5931.447984 -23081.017160  17550.465083   1241.138991
PE12  15839.867447  -6509.244763  24142.472771    411.098849
*  2012 11  1 12 25  0.00000000
PJ01 -25948.432467  33297.626325   5448.507503    -18.143353
PE11   6085.567397 -22566.115706  18156.678397   1241.163803
PE12  16058.627673  -5816.109425  24174.814070    411.124374
*  2012 11  1 12 30  0.00000000
PJ01 -25771.582484  33439.765683   4856.122995    -18.145224
PE11   6257.000939 -22037.909743  18737.766875   1241.188600
PE12  16293.090836  -5127.629207  24173.717732    411.149906
*  2012 11  1 12 35  0.00000000
PJ01 -25588.963513  33574.411949   4261.468814    -18.147184
PE11   6446.148406 -21497.643835  19292.926417   1241.213382
PE12  16542.812602  -4445.104325  24139.185139    411.175418
*  2012 11  1 12 40  0.00000000
PJ01 -25400.850790  33701.244565   3664.813349    -18.149053
PE11   6653.338517 -20946.589408  19821.388819   1241.238186
PE12  16807.278505  -3769.808628  24071.263904    411.200965
*  2012 11  1 12 45  0.00000000
PJ01 -25207.533566  33819.953920   3066.428536    -18.150924
PE11   6878.827525 -20386.040471  20322.422827   1241.262982
PE12  17085.905647  -3102.985429  23970.047805    411.226484
*  2012 11  1 12 50  0.00000000
PJ01 -25009.314674  33930.242019   2466.589775    -18.152846
PE11   7122.798105 -19817.309237  20795.335158   1241.287808
PE12  17378.044658  -2445.843416  23835.676659    411.252034
*  2012 11  1 12 55  0.00000000
PJ01 -24806.510084  34031.823149   1865.575856    -18.154736
PE11   7385.358479 -19241.721699  21239.471455   1241.312612
PE12  17682.981880  -1799.552705  23668.336129    411.277556
*  2012 11  1 13  0  0.00000000
PJ01 -24599.448416  34124.424521   1263.668879    -18.156597
PE11   7666.541818 -18660.613159  21654.217189   1241.337393
PE12  17999.941781  -1165.241028  23468.257467    411.303052
*  2012 11  1 13  5  0.00000000
PJ01 -24388.470427  34207.786895    661.154152    -18.158500
PE11   7966.305903 -18075.323719  22038.998515   1241.362189
PE12  18328.089600   -543.990050  23235.717199    411.328592
*  2012 11  1 13 10  0.00000000
PJ01 -24173.928461  34281.665200     58.320109    -18.160413
PE11   8284.533049 -17487.193777  22393.283059   1241.386979
PE12  18666.534186     63.168119  22971.036746    411.354123
*  2012 11  1 13 15  0.00000000
PJ01 -23956.185891  34345.829114   -544.541813    -18.162222
PE11   8621.030305 -16897.559499  22716.580662 999999.999999
PE12  19014.331051    655.254284  22674.581974    411.379654
EOF
